{
    "links": {
        "self": "http://www.neowsapp.com/rest/v1/neo/3753586?api_key=iIulBulltgU6a56xZRHN4H3l9WmuAYTsLGpBGhQ2"
    },
    "id": "3753586",
    "neo_reference_id": "3753586",
    "name": "(2016 JP38)",
    "designation": "2016 JP38",
    "nasa_jpl_url": "http://ssd.jpl.nasa.gov/sbdb.cgi?sstr=3753586",
    "absolute_magnitude_h": 24.2,
    "estimated_diameter": {
        "kilometers": {
            "estimated_diameter_min": 0.0384197891,
            "estimated_diameter_max": 0.0859092601
        },
        "meters": {
            "estimated_diameter_min": 38.4197891064,
            "estimated_diameter_max": 85.9092601232
        },
        "miles": {
            "estimated_diameter_min": 0.0238729428,
            "estimated_diameter_max": 0.0533815229
        },
        "feet": {
            "estimated_diameter_min": 126.0491808919,
            "estimated_diameter_max": 281.8545369825
        }
    },
    "is_potentially_hazardous_asteroid": false,
    "close_approach_data": [
        {
            "close_approach_date": "2016-04-25",
            "close_approach_date_full": "2016-Apr-25 17:27",
            "epoch_date_close_approach": 1461605220000,
            "relative_velocity": {
                "kilometers_per_second": "0.9720294127",
                "kilometers_per_hour": "3499.3058856378",
                "miles_per_hour": "2174.3325932175"
            },
            "miss_distance": {
                "astronomical": "0.2542450238",
                "lunar": "98.9013142582",
                "kilometers": "38034514.018579306",
                "miles": "23633551.1088181828"
            },
            "orbiting_body": "Earth"
        },
        {
            "close_approach_date": "2016-07-11",
            "close_approach_date_full": "2016-Jul-11 21:23",
            "epoch_date_close_approach": 1468272180000,
            "relative_velocity": {
                "kilometers_per_second": "7.2975702156",
                "kilometers_per_hour": "26271.2527759988",
                "miles_per_hour": "16323.9348151755"
            },
            "miss_distance": {
                "astronomical": "0.0870492949",
                "lunar": "33.8621757161",
                "kilometers": "13022389.102041863",
                "miles": "8091737.3691611894"
            },
            "orbiting_body": "Mars"
        }
    ],
    "orbital_data": {
        "orbit_id": "7",
        "orbit_determination_date": "2019-08-01 05:44:57",
        "first_observation_date": "2016-04-12",
        "last_observation_date": "2016-05-04",
        "data_arc_in_days": 22,
        "observations_used": 22,
        "orbit_uncertainty": "8",
        "minimum_orbit_intersection": ".253306",
        "jupiter_tisserand_invariant": "4.025",
        "epoch_osculation": "2457497.5",
        "eccentricity": ".2976837742095044",
        "semi_major_axis": "1.790831443035447",
        "inclination": "1.638944003121852",
        "ascending_node_longitude": "244.4411417891481",
        "orbital_period": "875.3474953200551",
        "perihelion_distance": "1.257729980099602",
        "perihelion_argument": "325.2052595099412",
        "aphelion_distance": "2.323932905971292",
        "perihelion_time": "2457495.820654710656",
        "mean_anomaly": ".6906563477888193",
        "mean_motion": ".4112652425747473",
        "equinox": "J2000",
        "orbit_class": {
            "orbit_class_type": "AMO",
            "orbit_class_description": "Near-Earth asteroid orbits similar to that of 1221 Amor",
            "orbit_class_range": "1.017 AU < q (perihelion) < 1.3 AU"
        }
    },
    "is_sentry_object": false
}